IRIDIUM 106             
1 41917U 17003A   25044.43677435  .00000469  00000+0  16027-3 0  9994
2 41917  86.3959 292.7656 0002469  81.4171 278.7305 14.34223114423156
IRIDIUM 103             
1 41918U 17003B   25044.42410805  .00000467  00000+0  15965-3 0  9998
2 41918  86.3958 292.6719 0002388  99.3421 260.8045 14.34216656423179
IRIDIUM 109             
1 41919U 17003C   25044.43044165  .00000468  00000+0  16011-3 0  9996
2 41919  86.3960 292.7207 0001940  90.8080 269.3338 14.34218114423143
IRIDIUM 102             
1 41920U 17003D   25044.39872534  .00000472  00000+0  16160-3 0  9992
2 41920  86.3957 292.6678 0002074  82.6797 277.4635 14.34220007423228
IRIDIUM 105             
1 41921U 17003E   25044.57876965  .00000477  00000+0  16313-3 0  9990
2 41921  86.3926 261.0056 0002171  89.7513 270.3932 14.34220507425103
IRIDIUM 104             
1 41922U 17003F   25044.41141359  .00000002  00000+0 -63778-5 0  9990
2 41922  86.3957 292.6975 0001722  99.9506 260.1884 14.34217439423217
IRIDIUM 114             
1 41923U 17003G   25044.41775751  .00000114  00000+0  33581-4 0  9991
2 41923  86.3959 292.6801 0002229  91.5929 268.5522 14.34217203423195
IRIDIUM 108             
1 41924U 17003H   25044.51581422  .00000440  00000+0  15013-3 0  9994
2 41924  86.3922 260.9411 0002278  83.0672 277.0782 14.34217964425061
